[{"OBJECT_NAME":"COSMOS 2508 (RODNIK-S 14)","OBJECT_ID":"2015-050B","EPOCH":"2026-03-09T22:28:21.828864","MEAN_MOTION":12.42910688,"ECCENTRICITY":0.00132668,"INCLINATION":82.4887,"RA_OF_ASC_NODE":140.0122,"ARG_OF_PERICENTER":235.6844,"MEAN_ANOMALY":124.298,"EPHEMERIS_TYPE":0,"CLASSIFICATION_TYPE":"U","NORAD_CAT_ID":40921,"ELEMENT_SET_NO":999,"REV_AT_EPOCH":47451,"BSTAR":0.00088603491,"MEAN_MOTION_DOT":1.33e-6,"MEAN_MOTION_DDOT":0},{"OBJECT_NAME":"SL-14 DEB","OBJECT_ID":"1991-068V","EPOCH":"2026-03-09T15:19:27.257088","MEAN_MOTION":12.44743982,"ECCENTRICITY":0.0053931,"INCLINATION":82.7367,"RA_OF_ASC_NODE":28.6334,"ARG_OF_PERICENTER":13.2601,"MEAN_ANOMALY":107.038,"EPHEMERIS_TYPE":0,"CLASSIFICATION_TYPE":"U","NORAD_CAT_ID":26010,"ELEMENT_SET_NO":999,"REV_AT_EPOCH":19152,"BSTAR":0.00086043,"MEAN_MOTION_DOT":1.33e-6,"MEAN_MOTION_DDOT":0}]
